OBJECT_NAME,OBJECT_ID,EPOCH,MEAN_MOTION,ECCENTRICITY,INCLINATION,RA_OF_ASC_NODE,ARG_OF_PERICENTER,MEAN_ANOMALY,EPHEMERIS_TYPE,CLASSIFICATION_TYPE,NORAD_CAT_ID,ELEMENT_SET_NO,REV_AT_EPOCH,BSTAR,MEAN_MOTION_DOT,MEAN_MOTION_DDOT
COSMOS 2251 DEB,1993-036NL,2024-01-20T16:18:00.752832,14.14458054,.0109568,74.0071,100.6644,4.2134,147.9221,0,U,34314,999,76875,.71205E-3,.142E-4,0
COSMOS 2251 DEB,1993-036NN,2024-01-20T14:36:37.684800,14.63398032,.0017229,74.0754,250.6246,175.0755,185.0585,0,U,34316,999,79020,.19096E-2,.9881E-4,0
COSMOS 2251 DEB,1993-036NP,2024-01-20T14:53:31.414272,13.63359272,.03417,73.9256,93.5772,214.6965,299.7799,0,U,34317,999,74180,.16129E-2,.1861E-4,0
COSMOS 2251 DEB,1993-036NR,2024-01-20T14:59:33.863136,14.93818031,.0018817,74.0141,229.6216,103.1331,257.1954,0,U,34319,999,78941,.63146E-2,.67873E-3,0
COSMOS 2251 DEB,1993-036NT,2024-01-20T09:47:11.353056,14.44808192,.0018745,74.0325,11.9582,303.9570,173.7665,0,U,34321,999,78468,.10561E-2,.3653E-4,0
COSMOS 2251 DEB,1993-036NV,2024-01-20T09:47:33.119808,14.51100471,.0097339,73.9649,16.0008,224.3902,287.3065,0,U,34323,999,78318,.25724E-2,.10828E-3,0
COSMOS 2251 DEB,1993-036NX,2024-01-20T06:49:53.412672,13.98103622,.0207192,73.8757,326.9103,116.5766,0.2175,0,U,34325,999,75814,.18154E-2,.3078E-4,0
COSMOS 2251 DEB,1993-036NZ,2024-01-20T14:52:31.061280,14.67993289,.0043804,74.0050,94.6661,80.0551,36.1209,0,U,34327,999,79305,.14539E-2,.8432E-4,0
COSMOS 2251 DEB,1993-036PC,2024-01-20T14:07:39.474048,14.74856960,.0008003,74.0270,217.3567,146.1527,269.6516,0,U,34330,999,78985,.39802E-2,.26779E-3,0
COSMOS 2251 DEB,1993-036PD,2024-01-20T03:56:04.589664,14.76386511,.0026893,74.0224,309.9139,67.2895,293.1117,0,U,34331,999,78669,.63754E-2,.44826E-3,0
COSMOS 2251 DEB,1993-036PN,2024-01-20T09:29:44.998080,13.76051604,.0306305,74.0799,21.4793,289.4889,185.4685,0,U,34340,999,74731,.21263E-2,.2889E-4,0
COSMOS 2251 DEB,1993-036PQ,2024-01-20T09:20:41.034912,14.82601527,.0082389,74.1706,109.7731,271.9962,160.3082,0,U,34342,999,79665,.26584E-2,.22749E-3,0
COSMOS 2251 DEB,1993-036PR,2024-01-20T07:20:47.985216,14.52999130,.002359,74.0283,334.5740,66.1752,51.7775,0,U,34343,999,78616,.22492E-2,.93E-4,0
COSMOS 2251 DEB,1993-036PS,2024-01-20T02:38:02.630688,14.08179638,.0168747,73.9825,258.8983,233.5508,281.1222,0,U,34344,999,76316,.19369E-2,.3741E-4,0
COSMOS 2251 DEB,1993-036PU,2024-01-20T13:07:12.993888,13.94755791,.0219223,73.9968,68.9166,37.3199,111.2230,0,U,34346,999,75740,.11291E-2,.1825E-4,0
COSMOS 2251 DEB,1993-036PY,2024-01-20T16:46:59.630592,14.65030146,.0012426,74.0342,228.9071,165.9870,267.1073,0,U,34383,999,78871,.23493E-2,.12606E-3,0
COSMOS 2251 DEB,1993-036QB,2024-01-20T02:58:00.158880,14.71557951,.0011849,74.0224,269.9755,153.9947,357.0934,0,U,34386,999,78682,.41244E-2,.25727E-3,0
COSMOS 2251 DEB,1993-036QC,2024-01-20T03:19:06.255840,14.40726085,.004182,74.0412,56.2917,323.2711,99.4471,0,U,34387,999,78195,.55901E-3,.1779E-4,0
COSMOS 2251 DEB,1993-036QD,2024-01-20T13:28:19.515072,14.42516240,.0018523,74.0431,74.5343,293.5322,187.5608,0,U,34388,999,78149,.11272E-2,.372E-4,0
COSMOS 2251 DEB,1993-036QE,2024-01-20T15:22:43.812768,14.38136705,.0031072,74.0211,89.9007,6.8721,113.4247,0,U,34389,999,78050,.64508E-3,.1941E-4,0
COSMOS 2251 DEB,1993-036QF,2024-01-20T15:01:36.938208,14.70673032,.0057379,74.0853,212.3621,25.7821,37.9834,0,U,34390,999,78965,.21704E-2,.13554E-3,0
COSMOS 2251 DEB,1993-036QL,2024-01-20T14:43:54.594912,14.96252495,.0006981,74.0266,216.8253,67.4148,1.6116,0,U,34395,999,78807,.69805E-2,.79735E-3,0
COSMOS 2251 DEB,1993-036QM,2024-01-20T10:37:06.378816,14.53066184,.0019239,74.0402,12.4071,242.5708,271.8547,0,U,34396,999,78219,.24583E-2,.10171E-3,0
COSMOS 2251 DEB,1993-036QN,2024-01-20T14:15:43.127424,15.22919553,.0036855,73.8266,354.5666,213.3698,146.5177,0,U,34397,999,80299,.25196E-2,.60701E-3,0
COSMOS 2251 DEB,1993-036QR,2024-01-20T08:52:18.101280,14.78680110,.0057082,74.0017,0.3030,323.5314,36.1978,0,U,34400,999,79576,.25105E-2,.18937E-3,0
COSMOS 2251 DEB,1993-036QS,2024-01-20T14:28:43.589856,14.71659233,.0052403,74.0409,213.3132,92.2169,332.5476,0,U,34401,999,79070,.27036E-2,.17218E-3,0
COSMOS 2251 DEB,1993-036RA,2024-01-20T11:56:45.564576,14.55418227,.0083123,74.0628,179.0352,73.9348,343.1143,0,U,34409,999,79112,.36067E-3,.1612E-4,0
COSMOS 2251 DEB,1993-036RB,2024-01-20T16:06:33.072768,14.75284812,.005505,73.7626,237.9041,205.3596,212.7474,0,U,34410,999,79535,.16732E-2,.11597E-3,0
COSMOS 2251 DEB,1993-036RD,2024-01-20T12:54:21.272544,14.35783845,.022118,73.9504,175.3330,64.8978,297.4946,0,U,34412,999,77695,.10042E-2,.3813E-4,0
COSMOS 2251 DEB,1993-036RE,2024-01-20T04:18:09.555264,14.21121725,.0105749,74.0348,74.9831,316.2498,106.2178,0,U,34413,999,77263,.22889E-2,.524E-4,0
COSMOS 2251 DEB,1993-036RM,2024-01-20T09:53:11.973696,14.65312028,.0112766,74.0362,0.1581,297.3816,190.5758,0,U,34420,999,79618,.45325E-3,.2652E-4,0
COSMOS 2251 DEB,1993-036RR,2024-01-20T11:21:36.176832,15.07021556,.002941,74.0046,306.1543,245.1075,238.1113,0,U,34424,999,79743,.47411E-2,.72434E-3,0
COSMOS 2251 DEB,1993-036RS,2024-01-20T19:02:07.475712,14.53123740,.0031947,74.0295,291.6337,225.0766,134.7804,0,U,34425,999,78671,.14949E-2,.6203E-4,0
COSMOS 2251 DEB,1993-036RV,2024-01-20T03:50:56.598720,14.67776014,.0031995,74.0338,281.9623,167.6540,344.2855,0,U,34428,999,78628,.34307E-2,.19743E-3,0
COSMOS 2251 DEB,1993-036RW,2024-01-20T08:14:30.441696,14.71240220,.0035183,74.0056,127.0821,81.8787,334.2821,0,U,34429,999,79105,.26865E-2,.16744E-3,0
COSMOS 2251 DEB,1993-036RX,2024-01-20T16:17:53.774304,14.36351768,.0064289,74.0531,137.1039,19.2944,341.0621,0,U,34430,999,78034,.69946E-3,.207E-4,0
COSMOS 2251 DEB,1993-036RY,2024-01-20T07:01:18.483456,14.24975688,.0071585,74.0791,344.9708,146.7283,213.8396,0,U,34431,999,77265,.96756E-3,.2301E-4,0
COSMOS 2251 DEB,1993-036RZ,2024-01-20T15:05:27.924288,13.99512545,.0190067,73.8290,238.5442,84.0423,341.8311,0,U,34432,999,75989,.80799E-3,.1353E-4,0
COSMOS 2251 DEB,1993-036SA,2024-01-20T03:15:24.279552,14.05821926,.0170154,74.0202,294.8332,228.5186,130.1240,0,U,34433,999,76190,.14866E-2,.2743E-4,0
COSMOS 2251 DEB,1993-036SB,2024-01-20T15:13:36.382368,13.77458065,.0317277,74.0641,96.3702,30.4355,89.0733,0,U,34434,999,74390,.33133E-2,.4764E-4,0
COSMOS 2251 DEB,1993-036SG,2024-01-20T08:39:55.526112,14.87274107,.0088164,74.0498,113.0771,321.9401,37.5570,0,U,34439,999,79340,.33529E-2,.32583E-3,0
COSMOS 2251 DEB,1993-036SK,2024-01-20T09:42:32.165280,14.80466513,.0060025,74.0134,17.0994,315.7311,43.9072,0,U,34442,999,79554,.30349E-2,.23992E-3,0
COSMOS 2251 DEB,1993-036SP,2024-01-20T02:47:20.749632,14.47853934,.0053266,74.0419,274.7072,225.3242,134.3572,0,U,34446,999,78664,.21181E-3,.77E-5,0
COSMOS 2251 DEB,1993-036SS,2024-01-20T06:49:30.121824,14.58470909,.0058624,74.0501,342.7133,217.5272,269.2176,0,U,34449,999,78486,.28601E-2,.13592E-3,0
COSMOS 2251 DEB,1993-036SU,2024-01-20T07:44:48.049440,14.58016422,.0059463,74.0602,358.9018,219.0170,140.6699,0,U,34451,999,78429,.31149E-2,.14671E-3,0
COSMOS 2251 DEB,1993-036SV,2024-01-20T12:51:47.248128,14.88545831,.0100701,74.0430,148.7883,51.4869,73.6009,0,U,34452,999,80286,.89269E-3,.9102E-4,0
COSMOS 2251 DEB,1993-036SW,2024-01-20T11:31:02.133120,14.61596848,.0029321,74.1660,33.3668,81.3044,69.3952,0,U,34453,999,78562,.26901E-2,.13449E-3,0
COSMOS 2251 DEB,1993-036SX,2024-01-20T14:33:26.136000,14.36889833,.0037082,74.0596,110.4958,346.4731,13.5424,0,U,34454,999,78119,.39602E-3,.1155E-4,0
COSMOS 2251 DEB,1993-036SZ,2024-01-20T00:27:57.239136,14.75273590,.0041977,74.0361,8.9598,233.4810,126.2495,0,U,34456,999,78412,.76247E-2,.52736E-3,0
COSMOS 2251 DEB,1993-036TA,2024-01-20T12:56:21.040224,14.78930431,.008336,73.9959,59.1562,355.4090,122.1451,0,U,34457,999,79347,.24914E-2,.19506E-3,0
COSMOS 2251 DEB,1993-036TB,2024-01-20T04:38:30.599808,14.69681730,.001314,74.0245,293.8504,173.2893,336.9736,0,U,34458,999,78652,.4743E-2,.28367E-3,0
COSMOS 2251 DEB,1993-036TC,2024-01-20T07:53:32.822304,13.98607315,.0197821,74.0804,9.0650,245.8452,112.1887,0,U,34459,999,76024,.76539E-3,.1273E-4,0
COSMOS 2251 DEB,1993-036TH,2024-01-20T11:43:37.345152,14.76062247,.0047068,74.0188,38.6306,0.1197,120.0530,0,U,34464,999,79489,.21399E-2,.15026E-3,0
COSMOS 2251 DEB,1993-036TJ,2024-01-19T20:16:40.921248,14.73891872,.0066164,74.0681,292.1136,127.3212,233.4016,0,U,34465,999,78689,.4332E-2,.29512E-3,0
COSMOS 2251 DEB,1993-036TM,2024-01-20T07:15:41.909760,14.44653564,.008071,74.0166,331.5574,282.9727,76.2427,0,U,34468,999,78451,.67129E-3,.2392E-4,0
COSMOS 2251 DEB,1993-036TR,2024-01-20T08:20:33.191232,13.66879383,.0340785,74.0828,153.8919,83.0787,280.8962,0,U,34472,999,74253,.17761E-2,.2194E-4,0
COSMOS 2251 DEB,1993-036TS,2024-01-20T08:57:21.749760,14.62360607,.0021305,74.0263,343.0540,200.4533,322.8684,0,U,34473,999,78557,.39133E-2,.19872E-3,0
COSMOS 2251 DEB,1993-036TT,2024-01-20T06:03:19.413792,13.98791165,.0223986,74.0793,88.3142,329.7729,86.9838,0,U,34474,999,75797,.23848E-2,.4233E-4,0
COSMOS 2251 DEB,1993-036TV,2024-01-19T09:15:13.711968,13.71045476,.0345517,74.0137,160.7725,168.7347,192.1769,0,U,34476,999,74095,.98819E-2,.1349E-3,0
COSMOS 2251 DEB,1993-036TW,2024-01-20T13:49:05.765952,14.49072925,.0086903,73.9829,300.6004,288.3897,133.7687,0,U,34477,999,78571,.13059E-2,.5177E-4,0
COSMOS 2251 DEB,1993-036TX,2024-01-20T13:26:44.607264,14.63138285,.0079259,74.0602,294.9386,328.5580,92.7056,0,U,34478,999,78715,.32919E-2,.17726E-3,0
COSMOS 2251 DEB,1993-036UA,2024-01-20T09:02:16.770336,14.28206932,.0075148,73.9786,237.7928,206.9436,209.8603,0,U,34481,999,77548,.58436E-3,.1474E-4,0
COSMOS 2251 DEB,1993-036UB,2024-01-20T15:04:02.021952,14.47661032,.006997,74.0464,100.4654,333.4791,148.5988,0,U,34482,999,78146,.23579E-2,.895E-4,0
COSMOS 2251 DEB,1993-036UC,2024-01-20T11:22:54.347232,15.02670968,.0023372,74.0077,48.7725,338.3263,21.6933,0,U,34542,999,79276,.52059E-2,.70522E-3,0
